0 FENGYUN 1C DEB
1 30624U 99025ANF 13279.83620940  .00003035  00000-0  17778-2 0   976
2 30624 098.8867 242.7974 0041544 137.1505 253.2993 14.08555996341719
0 FENGYUN 1C DEB
1 30624U 99025ANF 13284.88476050  .00003189  00000-0  18647-2 0   985
2 30624 098.8844 247.7721 0042548 122.3837 294.3934 14.08591539342421
0 FENGYUN 1C DEB
1 30624U 99025ANF 13288.73314965  .00004430  00000-0  25785-2 0   991
2 30624 098.8861 251.5656 0042707 112.0745 008.9585 14.08617967342976
0 FENGYUN 1C DEB
1 30624U 99025ANF 13291.37022352  .00004782  00000-0  27800-2 0  1004
2 30624 098.8880 254.1644 0042457 105.1342 061.2626 14.08640106343342
0 FENGYUN 1C DEB
1 30624U 99025ANF 13293.83588287  .00004975  00000-0  28898-2 0  1014
2 30624 098.8885 256.5942 0042905 098.0047 325.1766 14.08661742343687
